{"fetched_at":"2026-07-14T06:34:21.837Z","source":"https://celestrak.org/NORAD/elements/gp.php?GROUP=oneweb&FORMAT=JSON","constellation":"oneweb","records":[{"OBJECT_NAME":"ONEWEB-0520","OBJECT_ID":"2022-138AB","EPOCH":"2026-07-13T19:36:59.483232","CLASSIFICATION_TYPE":"U","MEAN_MOTION":13.19726842,"ECCENTRICITY":0.0002046,"INCLINATION":87.9193,"RA_OF_ASC_NODE":299.6654,"ARG_OF_PERICENTER":110.0249,"MEAN_ANOMALY":250.1104,"EPHEMERIS_TYPE":0,"NORAD_CAT_ID":54138,"ELEMENT_SET_NO":999,"REV_AT_EPOCH":18033,"BSTAR":0.000026666,"MEAN_MOTION_DOT":2.4e-7,"MEAN_MOTION_DDOT":0},{"OBJECT_NAME":"ONEWEB-0521","OBJECT_ID":"2022-138AC","EPOCH":"2026-07-13T20:24:44.165088","CLASSIFICATION_TYPE":"U","MEAN_MOTION":13.19726907,"ECCENTRICITY":0.0001817,"INCLINATION":87.9195,"RA_OF_ASC_NODE":299.6475,"ARG_OF_PERICENTER":96.1751,"MEAN_ANOMALY":263.9588,"EPHEMERIS_TYPE":0,"NORAD_CAT_ID":54139,"ELEMENT_SET_NO":999,"REV_AT_EPOCH":18028,"BSTAR":0.000088831,"MEAN_MOTION_DOT":4.9e-7,"MEAN_MOTION_DDOT":0},{"OBJECT_NAME":"ONEWEB-0522","OBJECT_ID":"2022-138AD","EPOCH":"2026-07-13T19:55:09.537600","CLASSIFICATION_TYPE":"U","MEAN_MOTION":13.19733985,"ECCENTRICITY":0.0001933,"INCLINATION":87.9208,"RA_OF_ASC_NODE":299.6519,"ARG_OF_PERICENTER":120.8172,"MEAN_ANOMALY":239.3151,"EPHEMERIS_TYPE":0,"NORAD_CAT_ID":54140,"ELEMENT_SET_NO":999,"REV_AT_EPOCH":18032,"BSTAR":-0.0029915,"MEAN_MOTION_DOT":-0.00001185,"MEAN_MOTION_DDOT":0},{"OBJECT_NAME":"ONEWEB-0523","OBJECT_ID":"2022-138AE","EPOCH":"2026-07-13T16:41:48.930144","CLASSIFICATION_TYPE":"U","MEAN_MOTION":13.20772563,"ECCENTRICITY":0.0002323,"INCLINATION":87.9183,"RA_OF_ASC_NODE":269.1598,"ARG_OF_PERICENTER":79.7654,"MEAN_ANOMALY":280.3741,"EPHEMERIS_TYPE":0,"NORAD_CAT_ID":54141,"ELEMENT_SET_NO":999,"REV_AT_EPOCH":18280,"BSTAR":0.00013748,"MEAN_MOTION_DOT":6.9e-7,"MEAN_MOTION_DDOT":0},{"OBJECT_NAME":"ONEWEB-0524","OBJECT_ID":"2022-138AF","EPOCH":"2026-07-13T18:16:21.978336","CLASSIFICATION_TYPE":"U","MEAN_MOTION":13.20772493,"ECCENTRICITY":0.000292,"INCLINATION":87.9187,"RA_OF_ASC_NODE":269.1427,"ARG_OF_PERICENTER":94.6169,"MEAN_ANOMALY":265.5298,"EPHEMERIS_TYPE":0,"NORAD_CAT_ID":54142,"ELEMENT_SET_NO":999,"REV_AT_EPOCH":18281,"BSTAR":0.000028934,"MEAN_MOTION_DOT":2.5e-7,"MEAN_MOTION_DDOT":0},{"OBJECT_NAME":"ONEWEB-0525","OBJECT_ID":"2022-138AG","EPOCH":"2026-07-13T20:22:27.744672","CLASSIFICATION_TYPE":"U","MEAN_MOTION":13.19723719,"ECCENTRICITY":0.0002174,"INCLINATION":87.9195,"RA_OF_ASC_NODE":299.6571,"ARG_OF_PERICENTER":111.1631,"MEAN_ANOMALY":248.9734,"EPHEMERIS_TYPE":0,"NORAD_CAT_ID":54143,"ELEMENT_SET_NO":999,"REV_AT_EPOCH":18034,"BSTAR":0.0001028,"MEAN_MOTION_DOT":5.4e-7,"MEAN_MOTION_DDOT":0},{"OBJECT_NAME":"ONEWEB-0526","OBJECT_ID":"2022-138AH","EPOCH":"2026-07-13T19:21:03.367008","CLASSIFICATION_TYPE":"U","MEAN_MOTION":13.19723567,"ECCENTRICITY":0.0002133,"INCLINATION":87.9193,"RA_OF_ASC_NODE":299.6664,"ARG_OF_PERICENTER":103.7787,"MEAN_ANOMALY":256.3583,"EPHEMERIS_TYPE":0,"NORAD_CAT_ID":54144,"ELEMENT_SET_NO":999,"REV_AT_EPOCH":18031,"BSTAR":0.000074916,"MEAN_MOTION_DOT":4.3e-7,"MEAN_MOTION_DDOT":0},{"OBJECT_NAME":"ONEWEB-0529","OBJECT_ID":"2022-138AJ","EPOCH":"2026-07-13T17:36:26.807040","CLASSIFICATION_TYPE":"U","MEAN_MOTION":13.19725758,"ECCENTRICITY":0.0002059,"INCLINATION":87.9187,"RA_OF_ASC_NODE":299.6878,"ARG_OF_PERICENTER":107.766,"MEAN_ANOMALY":252.3697,"EPHEMERIS_TYPE":0,"NORAD_CAT_ID":54145,"ELEMENT_SET_NO":999,"REV_AT_EPOCH":18032,"BSTAR":-0.0001809,"MEAN_MOTION_DOT":-5.9e-7,"MEAN_MOTION_DDOT":0},{"OBJECT_NAME":"ONEWEB-0531","OBJECT_ID":"2022-138AK","EPOCH":"2026-07-13T17:56:57.703776","CLASSIFICATION_TYPE":"U","MEAN_MOTION":13.20772943,"ECCENTRICITY":0.0002608,"INCLINATION":87.9189,"RA_OF_ASC_NODE":269.1423,"ARG_OF_PERICENTER":80.7607,"MEAN_ANOMALY":279.3821,"EPHEMERIS_TYPE":0,"NORAD_CAT_ID":54146,"ELEMENT_SET_NO":999,"REV_AT_EPOCH":18281,"BSTAR":-0.000080941,"MEAN_MOTION_DOT":-2e-7,"MEAN_MOTION_DDOT":0},{"OBJECT_NAME":"ONEWEB-0535","OBJECT_ID":"2022-138AL","EPOCH":"2026-07-13T20:13:21.728640","CLASSIFICATION_TYPE":"U","MEAN_MOTION":13.19726515,"ECCENTRICITY":0.0001926,"INCLINATION":87.9185,"RA_OF_ASC_NODE":299.6543,"ARG_OF_PERICENTER":94.578,"MEAN_ANOMALY":265.5572,"EPHEMERIS_TYPE":0,"NORAD_CAT_ID":54147,"ELEMENT_SET_NO":999,"REV_AT_EPOCH":18035,"BSTAR":-0.000066628,"MEAN_MOTION_DOT":-1.4e-7,"MEAN_MOTION_DDOT":0},{"OBJECT_NAME":"ONEWEB-0536","OBJECT_ID":"2022-138AM","EPOCH":"2026-07-13T17:37:34.172256","CLASSIFICATION_TYPE":"U","MEAN_MOTION":13.20772757,"ECCENTRICITY":0.0002781,"INCLINATION":87.9178,"RA_OF_ASC_NODE":269.1642,"ARG_OF_PERICENTER":83.4952,"MEAN_ANOMALY":276.6498,"EPHEMERIS_TYPE":0,"NORAD_CAT_ID":54148,"ELEMENT_SET_NO":999,"REV_AT_EPOCH":18280,"BSTAR":0.000020541,"MEAN_MOTION_DOT":2.1e-7,"MEAN_MOTION_DDOT":0},{"OBJECT_NAME":"ONEWEB-0527","OBJECT_ID":"2022-166A","EPOCH":"2026-07-13T16:05:21.299424","CLASSIFICATION_TYPE":"U","MEAN_MOTION":13.21827954,"ECCENTRICITY":0.0002127,"INCLINATION":87.9228,"RA_OF_ASC_NODE":238.7268,"ARG_OF_PERICENTER":94.9321,"MEAN_ANOMALY":265.2056,"EPHEMERIS_TYPE":0,"NORAD_CAT_ID":54642,"ELEMENT_SET_NO":999,"REV_AT_EPOCH":17503,"BSTAR":0.00012775,"MEAN_MOTION_DOT":6.6e-7,"MEAN_MOTION_DDOT":0},{"OBJECT_NAME":"ONEWEB-0528","OBJECT_ID":"2022-166B","EPOCH":"2026-07-13T16:06:33.969600","CLASSIFICATION_TYPE":"U","MEAN_MOTION":13.21825766,"ECCENTRICITY":0.0002175,"INCLINATION":87.9236,"RA_OF_ASC_NODE":238.7288,"ARG_OF_PERICENTER":102.2395,"MEAN_ANOMALY":257.8983,"EPHEMERIS_TYPE":0,"NORAD_CAT_ID":54643,"ELEMENT_SET_NO":999,"REV_AT_EPOCH":17504,"BSTAR":-0.000018176,"MEAN_MOTION_DOT":6e-8,"MEAN_MOTION_DDOT":0},{"OBJECT_NAME":"ONEWEB-0539","OBJECT_ID":"2022-166C","EPOCH":"2026-07-13T15:12:02.711808","CLASSIFICATION_TYPE":"U","MEAN_MOTION":13.21823956,"ECCENTRICITY":0.0001822,"INCLINATION":87.9244,"RA_OF_ASC_NODE":238.7095,"ARG_OF_PERICENTER":99.095,"MEAN_ANOMALY":261.0391,"EPHEMERIS_TYPE":0,"NORAD_CAT_ID":54644,"ELEMENT_SET_NO":999,"REV_AT_EPOCH":17503,"BSTAR":0.00010625,"MEAN_MOTION_DOT":5.7e-7,"MEAN_MOTION_DDOT":0},{"OBJECT_NAME":"ONEWEB-0540","OBJECT_ID":"2022-166D","EPOCH":"2026-07-13T15:21:56.437920","CLASSIFICATION_TYPE":"U","MEAN_MOTION":13.21824266,"ECCENTRICITY":0.0001976,"INCLINATION":87.9233,"RA_OF_ASC_NODE":238.737,"ARG_OF_PERICENTER":93.7678,"MEAN_ANOMALY":266.3682,"EPHEMERIS_TYPE":0,"NORAD_CAT_ID":54645,"ELEMENT_SET_NO":999,"REV_AT_EPOCH":17502,"BSTAR":-0.000063123,"MEAN_MOTION_DOT":-1.3e-7,"MEAN_MOTION_DDOT":0},{"OBJECT_NAME":"ONEWEB-0542","OBJECT_ID":"2022-166E","EPOCH":"2026-07-13T15:26:36.349728","CLASSIFICATION_TYPE":"U","MEAN_MOTION":13.21824514,"ECCENTRICITY":0.0001747,"INCLINATION":87.9244,"RA_OF_ASC_NODE":238.7069,"ARG_OF_PERICENTER":95.2919,"MEAN_ANOMALY":264.8414,"EPHEMERIS_TYPE":0,"NORAD_CAT_ID":54646,"ELEMENT_SET_NO":999,"REV_AT_EPOCH":17503,"BSTAR":-0.00016831,"MEAN_MOTION_DOT":-5.6e-7,"MEAN_MOTION_DDOT":0}]}
