ONEWEB-0520             
1 54138U 22138AB  26194.81735513  .00000024  00000+0  26666-4 0  9997
2 54138  87.9193 299.6654 0002046 110.0249 250.1104 13.19726842180331
ONEWEB-0521             
1 54139U 22138AC  26194.85051117  .00000049  00000+0  88831-4 0  9992
2 54139  87.9195 299.6475 0001817  96.1751 263.9588 13.19726907180286
ONEWEB-0522             
1 54140U 22138AD  26194.82997150 -.00001185  00000+0 -29915-2 0  9997
2 54140  87.9208 299.6519 0001933 120.8172 239.3151 13.19733985180325
ONEWEB-0523             
1 54141U 22138AE  26194.69570521  .00000069  00000+0  13748-3 0  9998
2 54141  87.9183 269.1598 0002323  79.7654 280.3741 13.20772563182801
ONEWEB-0524             
1 54142U 22138AF  26194.76136549  .00000025  00000+0  28934-4 0  9991
2 54142  87.9187 269.1427 0002920  94.6169 265.5298 13.20772493182812
ONEWEB-0525             
1 54143U 22138AG  26194.84893223  .00000054  00000+0  10280-3 0  9996
2 54143  87.9195 299.6571 0002174 111.1631 248.9734 13.19723719180341
ONEWEB-0526             
1 54144U 22138AH  26194.80628897  .00000043  00000+0  74916-4 0  9991
2 54144  87.9193 299.6664 0002133 103.7787 256.3583 13.19723567180310
ONEWEB-0529             
1 54145U 22138AJ  26194.73364360 -.00000059  00000+0 -18090-3 0  9995
2 54145  87.9187 299.6878 0002059 107.7660 252.3697 13.19725758180329
ONEWEB-0531             
1 54146U 22138AK  26194.74789009 -.00000020  00000+0 -80941-4 0  9991
2 54146  87.9189 269.1423 0002608  80.7607 279.3821 13.20772943182815
ONEWEB-0535             
1 54147U 22138AL  26194.84261260 -.00000014  00000+0 -66628-4 0  9996
2 54147  87.9185 299.6543 0001926  94.5780 265.5572 13.19726515180359
ONEWEB-0536             
1 54148U 22138AM  26194.73442329  .00000021  00000+0  20541-4 0  9992
2 54148  87.9178 269.1642 0002781  83.4952 276.6498 13.20772757182805
ONEWEB-0527             
1 54642U 22166A   26194.67038541  .00000066  00000+0  12775-3 0  9990
2 54642  87.9228 238.7268 0002127  94.9321 265.2056 13.21827954175039
ONEWEB-0528             
1 54643U 22166B   26194.67122650  .00000006  00000+0 -18176-4 0  9993
2 54643  87.9236 238.7288 0002175 102.2395 257.8983 13.21825766175044
ONEWEB-0539             
1 54644U 22166C   26194.63336472  .00000057  00000+0  10625-3 0  9994
2 54644  87.9244 238.7095 0001822  99.0950 261.0391 13.21823956175036
ONEWEB-0540             
1 54645U 22166D   26194.64023655 -.00000013  00000+0 -63123-4 0  9998
2 54645  87.9233 238.7370 0001976  93.7678 266.3682 13.21824266175024
ONEWEB-0542             
1 54646U 22166E   26194.64347627 -.00000056  00000+0 -16831-3 0  9997
2 54646  87.9244 238.7069 0001747  95.2919 264.8414 13.21824514175036
